CYGNUS NG-23            
1 65616U 25208A   26010.88680200  .00009595  00000+0  18059-3 0  9995
2 65616  51.6334 358.1732 0007686   4.2400 355.8652 15.49222658   226
DRAGONFLY               
1 65729U 98067XH  26009.16745561  .00318970  00000+0  12604-2 0  9993
2 65729  51.6223 354.1315 0008411  77.0299 283.1643 15.85337671 17494
1998-067XK              
1 65731U 98067XK  26010.65204303  .00135721  00000+0  97229-3 0  9994
2 65731  51.6288 349.8500 0005044  58.5961 301.5530 15.72748695 17683
RSP-03                  
1 65732U 98067XL  26010.64583120  .00200102  00000+0  11052-2 0  9996
2 65732  51.6256 348.2816 0006063  66.7617 293.4022 15.78480990 17719
GHS-01                  
1 65733U 98067XM  26010.91275714  .00706192  22651-3  16209-2 0  9993
2 65733  51.6243 343.2752 0008573  98.0604 262.1378 15.96669407 17801
YOTSUBA-KULOVER         
1 65941U 98067XN  26010.95685456  .00089230  00000+0  91257-3 0  9990
2 65941  51.6292 352.6453 0003994  84.9143 275.2308 15.64258469 14422
BOTAN                   
1 65942U 98067XP  26009.66509236  .00153604  00000+0  12149-2 0  9997
2 65942  51.6267 357.5104 0004724  74.9009 285.2511 15.70335248 14249
E-KAGAKU-1              
1 65943U 98067XQ  26009.23168389  .00096582  00000+0  99731-3 0  9995
2 65943  51.6307   1.3807 0002476  73.8814 286.2453 15.63985130 14152
HRC MONOBLOCK CAMERA    
1 66052U 98067XR  26010.95222101  .00036331  00000+0  50924-3 0  9998
2 66052  51.6311 355.6128 0001194 344.5147  15.5808 15.56404735 13383
HTV-X1                  
1 66174U 25241A   26010.88680200  .00009595  00000+0  18059-3 0  9992
2 66174  51.6334 358.1732 0007686   4.2400 355.8652 15.49222658   518
SZ-21 MODULE            
1 66515U 25246C   26010.92516136  .00029319  00000+0  30076-3 0  9996
2 66515  41.4742 197.7803 0001507 129.4079 230.6895 15.64286887  9015
SHENZHOU-22             
1 66645U 25272A   26010.91133230  .00015038  00000+0  18135-3 0  9993
2 66645  41.4652 199.4422 0011416 260.7676  99.1871 15.60382791267641
