CCSDS_OMM_VERS = 2.0
CREATION_DATE  = 
ORIGINATOR     = 

OBJECT_NAME    = CYGNUS NG-23
OBJECT_ID      = 2025-208A
CENTER_NAME    = EARTH
REF_FRAME      = TEME
TIME_SYSTEM    = UTC
MEAN_ELEMENT_THEORY = SGP/SGP4

EPOCH          = 2026-01-10T21:16:59.692800
MEAN_MOTION    = 15.49222658
ECCENTRICITY   = .0007686
INCLINATION    = 51.6334
RA_OF_ASC_NODE = 358.1732
ARG_OF_PERICENTER = 4.2400
MEAN_ANOMALY   = 355.8652

EPHEMERIS_TYPE = 0
CLASSIFICATION_TYPE = U
NORAD_CAT_ID   = 65616
ELEMENT_SET_NO = 999
REV_AT_EPOCH   = 22
BSTAR          = .18059147E-3
MEAN_MOTION_DOT = .9595E-4
MEAN_MOTION_DDOT = 0

CCSDS_OMM_VERS = 2.0
CREATION_DATE  = 
ORIGINATOR     = 

OBJECT_NAME    = DRAGONFLY
OBJECT_ID      = 1998-067XH
CENTER_NAME    = EARTH
REF_FRAME      = TEME
TIME_SYSTEM    = UTC
MEAN_ELEMENT_THEORY = SGP/SGP4

EPOCH          = 2026-01-09T04:01:08.164704
MEAN_MOTION    = 15.85337671
ECCENTRICITY   = .00084113
INCLINATION    = 51.6223
RA_OF_ASC_NODE = 354.1315
ARG_OF_PERICENTER = 77.0299
MEAN_ANOMALY   = 283.1643

EPHEMERIS_TYPE = 0
CLASSIFICATION_TYPE = U
NORAD_CAT_ID   = 65729
ELEMENT_SET_NO = 999
REV_AT_EPOCH   = 1749
BSTAR          = .12603861E-2
MEAN_MOTION_DOT = .31897E-2
MEAN_MOTION_DDOT = 0

CCSDS_OMM_VERS = 2.0
CREATION_DATE  = 
ORIGINATOR     = 

OBJECT_NAME    = 1998-067XK
OBJECT_ID      = 1998-067XK
CENTER_NAME    = EARTH
REF_FRAME      = TEME
TIME_SYSTEM    = UTC
MEAN_ELEMENT_THEORY = SGP/SGP4

EPOCH          = 2026-01-10T15:38:56.517792
MEAN_MOTION    = 15.72748695
ECCENTRICITY   = .00050449
INCLINATION    = 51.6288
RA_OF_ASC_NODE = 349.8500
ARG_OF_PERICENTER = 58.5961
MEAN_ANOMALY   = 301.5530

EPHEMERIS_TYPE = 0
CLASSIFICATION_TYPE = U
NORAD_CAT_ID   = 65731
ELEMENT_SET_NO = 999
REV_AT_EPOCH   = 1768
BSTAR          = .97228802E-3
MEAN_MOTION_DOT = .135721E-2
MEAN_MOTION_DDOT = 0

CCSDS_OMM_VERS = 2.0
CREATION_DATE  = 
ORIGINATOR     = 

OBJECT_NAME    = RSP-03
OBJECT_ID      = 1998-067XL
CENTER_NAME    = EARTH
REF_FRAME      = TEME
TIME_SYSTEM    = UTC
MEAN_ELEMENT_THEORY = SGP/SGP4

EPOCH          = 2026-01-10T15:29:59.815680
MEAN_MOTION    = 15.78480990
ECCENTRICITY   = .00060639
INCLINATION    = 51.6256
RA_OF_ASC_NODE = 348.2816
ARG_OF_PERICENTER = 66.7617
MEAN_ANOMALY   = 293.4022

EPHEMERIS_TYPE = 0
CLASSIFICATION_TYPE = U
NORAD_CAT_ID   = 65732
ELEMENT_SET_NO = 999
REV_AT_EPOCH   = 1771
BSTAR          = .11052495E-2
MEAN_MOTION_DOT = .200102E-2
MEAN_MOTION_DDOT = 0

CCSDS_OMM_VERS = 2.0
CREATION_DATE  = 
ORIGINATOR     = 

OBJECT_NAME    = GHS-01
OBJECT_ID      = 1998-067XM
CENTER_NAME    = EARTH
REF_FRAME      = TEME
TIME_SYSTEM    = UTC
MEAN_ELEMENT_THEORY = SGP/SGP4

EPOCH          = 2026-01-10T21:54:22.216896
MEAN_MOTION    = 15.96669407
ECCENTRICITY   = .00085735
INCLINATION    = 51.6243
RA_OF_ASC_NODE = 343.2752
ARG_OF_PERICENTER = 98.0604
MEAN_ANOMALY   = 262.1378

EPHEMERIS_TYPE = 0
CLASSIFICATION_TYPE = U
NORAD_CAT_ID   = 65733
ELEMENT_SET_NO = 999
REV_AT_EPOCH   = 1780
BSTAR          = .16208931E-2
MEAN_MOTION_DOT = .706192E-2
MEAN_MOTION_DDOT = .2265138E-3

CCSDS_OMM_VERS = 2.0
CREATION_DATE  = 
ORIGINATOR     = 

OBJECT_NAME    = YOTSUBA-KULOVER
OBJECT_ID      = 1998-067XN
CENTER_NAME    = EARTH
REF_FRAME      = TEME
TIME_SYSTEM    = UTC
MEAN_ELEMENT_THEORY = SGP/SGP4

EPOCH          = 2026-01-10T22:57:52.233984
MEAN_MOTION    = 15.64258469
ECCENTRICITY   = .00039949
INCLINATION    = 51.6292
RA_OF_ASC_NODE = 352.6453
ARG_OF_PERICENTER = 84.9143
MEAN_ANOMALY   = 275.2308

EPHEMERIS_TYPE = 0
CLASSIFICATION_TYPE = U
NORAD_CAT_ID   = 65941
ELEMENT_SET_NO = 999
REV_AT_EPOCH   = 1442
BSTAR          = .9125748E-3
MEAN_MOTION_DOT = .8923E-3
MEAN_MOTION_DDOT = 0

CCSDS_OMM_VERS = 2.0
CREATION_DATE  = 
ORIGINATOR     = 

OBJECT_NAME    = BOTAN
OBJECT_ID      = 1998-067XP
CENTER_NAME    = EARTH
REF_FRAME      = TEME
TIME_SYSTEM    = UTC
MEAN_ELEMENT_THEORY = SGP/SGP4

EPOCH          = 2026-01-09T15:57:43.979904
MEAN_MOTION    = 15.70335248
ECCENTRICITY   = .0004724
INCLINATION    = 51.6267
RA_OF_ASC_NODE = 357.5104
ARG_OF_PERICENTER = 74.9009
MEAN_ANOMALY   = 285.2511

EPHEMERIS_TYPE = 0
CLASSIFICATION_TYPE = U
NORAD_CAT_ID   = 65942
ELEMENT_SET_NO = 999
REV_AT_EPOCH   = 1424
BSTAR          = .1214933E-2
MEAN_MOTION_DOT = .153604E-2
MEAN_MOTION_DDOT = 0

CCSDS_OMM_VERS = 2.0
CREATION_DATE  = 
ORIGINATOR     = 

OBJECT_NAME    = E-KAGAKU-1
OBJECT_ID      = 1998-067XQ
CENTER_NAME    = EARTH
REF_FRAME      = TEME
TIME_SYSTEM    = UTC
MEAN_ELEMENT_THEORY = SGP/SGP4

EPOCH          = 2026-01-09T05:33:37.488096
MEAN_MOTION    = 15.63985130
ECCENTRICITY   = .00024766
INCLINATION    = 51.6307
RA_OF_ASC_NODE = 1.3807
ARG_OF_PERICENTER = 73.8814
MEAN_ANOMALY   = 286.2453

EPHEMERIS_TYPE = 0
CLASSIFICATION_TYPE = U
NORAD_CAT_ID   = 65943
ELEMENT_SET_NO = 999
REV_AT_EPOCH   = 1415
BSTAR          = .99730698E-3
MEAN_MOTION_DOT = .96582E-3
MEAN_MOTION_DDOT = 0

CCSDS_OMM_VERS = 2.0
CREATION_DATE  = 
ORIGINATOR     = 

OBJECT_NAME    = HRC MONOBLOCK CAMERA
OBJECT_ID      = 1998-067XR
CENTER_NAME    = EARTH
REF_FRAME      = TEME
TIME_SYSTEM    = UTC
MEAN_ELEMENT_THEORY = SGP/SGP4

EPOCH          = 2026-01-10T22:51:11.895264
MEAN_MOTION    = 15.56404735
ECCENTRICITY   = .0001194
INCLINATION    = 51.6311
RA_OF_ASC_NODE = 355.6128
ARG_OF_PERICENTER = 344.5147
MEAN_ANOMALY   = 15.5808

EPHEMERIS_TYPE = 0
CLASSIFICATION_TYPE = U
NORAD_CAT_ID   = 66052
ELEMENT_SET_NO = 999
REV_AT_EPOCH   = 1338
BSTAR          = .50924358E-3
MEAN_MOTION_DOT = .36331E-3
MEAN_MOTION_DDOT = 0

CCSDS_OMM_VERS = 2.0
CREATION_DATE  = 
ORIGINATOR     = 

OBJECT_NAME    = HTV-X1
OBJECT_ID      = 2025-241A
CENTER_NAME    = EARTH
REF_FRAME      = TEME
TIME_SYSTEM    = UTC
MEAN_ELEMENT_THEORY = SGP/SGP4

EPOCH          = 2026-01-10T21:16:59.692800
MEAN_MOTION    = 15.49222658
ECCENTRICITY   = .0007686
INCLINATION    = 51.6334
RA_OF_ASC_NODE = 358.1732
ARG_OF_PERICENTER = 4.2400
MEAN_ANOMALY   = 355.8652

EPHEMERIS_TYPE = 0
CLASSIFICATION_TYPE = U
NORAD_CAT_ID   = 66174
ELEMENT_SET_NO = 999
REV_AT_EPOCH   = 51
BSTAR          = .18059147E-3
MEAN_MOTION_DOT = .9595E-4
MEAN_MOTION_DDOT = 0

CCSDS_OMM_VERS = 2.0
CREATION_DATE  = 
ORIGINATOR     = 

OBJECT_NAME    = SZ-21 MODULE
OBJECT_ID      = 2025-246C
CENTER_NAME    = EARTH
REF_FRAME      = TEME
TIME_SYSTEM    = UTC
MEAN_ELEMENT_THEORY = SGP/SGP4

EPOCH          = 2026-01-10T22:12:13.941504
MEAN_MOTION    = 15.64286887
ECCENTRICITY   = .00015072
INCLINATION    = 41.4742
RA_OF_ASC_NODE = 197.7803
ARG_OF_PERICENTER = 129.4079
MEAN_ANOMALY   = 230.6895

EPHEMERIS_TYPE = 0
CLASSIFICATION_TYPE = U
NORAD_CAT_ID   = 66515
ELEMENT_SET_NO = 999
REV_AT_EPOCH   = 901
BSTAR          = .30076067E-3
MEAN_MOTION_DOT = .29319E-3
MEAN_MOTION_DDOT = 0

CCSDS_OMM_VERS = 2.0
CREATION_DATE  = 
ORIGINATOR     = 

OBJECT_NAME    = SHENZHOU-22
OBJECT_ID      = 2025-272A
CENTER_NAME    = EARTH
REF_FRAME      = TEME
TIME_SYSTEM    = UTC
MEAN_ELEMENT_THEORY = SGP/SGP4

EPOCH          = 2026-01-10T21:52:19.110720
MEAN_MOTION    = 15.60382791
ECCENTRICITY   = .00114162
INCLINATION    = 41.4652
RA_OF_ASC_NODE = 199.4422
ARG_OF_PERICENTER = 260.7676
MEAN_ANOMALY   = 99.1871

EPHEMERIS_TYPE = 0
CLASSIFICATION_TYPE = U
NORAD_CAT_ID   = 66645
ELEMENT_SET_NO = 999
REV_AT_EPOCH   = 26764
BSTAR          = .18134976E-3
MEAN_MOTION_DOT = .15038E-3
MEAN_MOTION_DDOT = 0

